#dP2021  4 11  0  0  0.00000000      96 __u+U ITR00 FIT  IAC
## 2153      0.00000000   900.00000000 59315 0.0000000000000
+  116   C06C07C08C09C10C11C12C13C14C16C19C20C21C22C23C24C25
+        C26C27C28C29C30C32C33C34C35C36C37C38C39C40C41C42C43
+        C44C45C46E01E02E03E04E05E07E08E09E11E12E13E14E15E18
+        E19E21E24E25E26E27E30E31E33E36G01G02G03G04G05G06G07
+        G08G09G10G12G13G14G15G16G17G18G19G20G21G22G23G24G25
+        G26G27G28G29G30G31G32J01J02J03R01R02R03R04R05R07R08
+        R09R11R12R13R14R15R16R17R18R19R20R21R22R24  0  0  0
++         9  9  6  8  9  7  7  8  7  7  7  6  7  7  6  6  7
++         7  7  7  9  7  7  7  7  7  7  7  8  8  7  7  7  5
++         8  8  8  6  5  6  6  6  7  6  6  6  6  6  7  6  5
++         5  5  5  6  6  6  4  6  5  7  6  7  6  6  6  6  5
++         6  6  5  6  5  5  5  6  6  6  6  4  7  6  5  6  6
++         6  5  6  6  7  5  5  9  7  7  7  7  6  7  6  6  7
++         6  6  6  7  5  7  8  5  6  5  6  4  6  5  0  0  0
%c M  cc GPS ccc cccc cccc cccc cccc ccccc ccccc ccccc ccccc
%c cc cc ccc ccc cccc cccc cccc cccc ccccc ccccc ccccc ccccc
%f  0.0000000  0.000000000  0.00000000000  0.000000000000000
%f  0.0000000  0.000000000  0.00000000000  0.000000000000000
%i    0    0    0    0      0      0      0      0         0
%i    0    0    0    0      0      0      0      0         0
/* INFORMATION & ANALYSIS CENTER (IAC)      ULTRA-RAPID DATA
/* S/V CLOCKS ARE ALIGNED TO GNSS TIME                      
/* G:C1WC2W R:C1PC2P E:C1XC5X C:C2IC6I J:C1CC2S             
/* PCV:IGS14_2148 OL/AL:FES2004  NONE     YN ORB:CoN CLK:CoN
*  2021 04 11 19  0  0.00000000
PC06  -7418.620580  28343.015976  30953.191111    268.193322
PC07 -23691.046064  24697.551577 -24688.345484   -110.333002
PC08 -18659.538509  37376.120735  -3910.441679   -892.905219
PC09   5068.892435  36368.453570  21397.752818    602.862218
PC10  -7573.156686  27158.021322 -31244.037538    -58.015236
PC11  -5383.302201  18407.864338 -20198.593464   -815.192062
PC12 -16382.758980    732.453014 -22548.590634    932.980652
PC13  -9514.833675  39798.036433   9721.011101    217.542840
PC14 -15049.245264  13261.423972  19456.052091    442.860809
PC16  -3467.170973  30305.187910  29316.359762   -778.663094
PC19   4204.813928 -15636.387057 -22693.915382    795.067342
PC20  22059.086200  -9426.331600 -14209.950909   -952.145119
PC21 -27596.663770  -2766.323171  -3177.367972   -936.293737
PC22 -16642.186800 -12994.629294 -18251.827182   -958.783739
PC23   6683.386114  17412.804302 -20756.751301   -886.724927
PC24 -19139.191213  17845.224889   9650.028697   -810.731529
PC25  -7773.332621  25398.248707  -8532.780837   -934.074311
PC26 -18294.133271   1646.138894  20990.063169    922.410247
PC27  19033.515293   9255.008274  18180.813958    513.774330
PC28  14652.147457  23572.590501   2894.909288    -87.466518
PC29  -2593.624344 -23967.501387  14041.994330    377.462392
PC30  12209.548679 -10425.740658  22817.555931    459.496048
PC32  27591.172040   2604.090625   3241.560879   -937.399007
PC33  -4243.417155  15699.377363  22691.415518   -941.973681
PC34 -11784.990567  11164.801816 -22710.352941   -698.169178
PC35 -15300.347817 -23169.467287  -2583.743447   -331.738872
PC36   8625.961298 -25237.683875   8231.030796   -732.430411
PC37  18028.572812   -351.772254 -21288.872957   -894.159778
PC38 -16182.414305  38874.546553   -155.552279    141.635827
PC39    700.688525  31556.929094  28045.249413     30.209714
PC40 -12299.214768  22132.707428 -33717.337231 999999.999999
PC41  16359.377826  13126.479270  18462.756220   -942.594806
PC42 -22568.492015   9139.352041  13697.996157   -925.995065
PC43   2018.750035  23850.215927 -14377.295599   -681.039757
PC44 -19436.520534  -8695.077780 -18026.648024 999999.999999
PC45  -6687.225305 -17285.590571  20868.038509    411.168322
PC46  18827.874604 -18621.639502  -8857.742528    320.794261
PE01 -26611.174062  11433.984370   6085.593455  -1084.888193
PE02  26614.793684 -11517.279730  -5984.082071    211.478095
PE03  23818.751053  -1210.295736 -17520.995963   -419.026405
PE04  -7716.782818  15273.126554  24162.505334   -748.076880
PE05  26187.833546  13787.561218   -484.777893   -289.636077
PE07 -13276.361972 -20574.237452 -16628.117402   -524.349739
PE08   7227.283585 -15355.943103 -24245.787871   6019.141524
PE09  13550.011077  20413.522468  16606.751906   5704.202671
PE11   5413.553086  28324.185531   6727.473583   6105.918408
PE12  -7288.043614  25811.025404 -12550.669068   5264.654342
PE13  -5230.999484 -28429.358093  -6333.471403    414.877686
PE14  -6612.000727 -21078.472987  13079.397530  -1393.517864
PE15   7154.745017 -25822.920519  12570.825368    819.967025
PE18  -4173.182271  21392.514165 -22095.653946  -1524.459255
PE19 -24872.815887   -715.498850  16039.015053    249.777996
PE21 -20769.505562  -3667.322531  20761.141138   -658.772696
PE24   1883.117689  17635.122188 -23710.218650   -841.845432
PE25  20648.643069   3821.933390 -20863.208761   -530.759498
PE26 -14802.413360 -13555.993689 -21748.914648   1936.070121
PE27  -2688.312894 -17252.626420  23901.286085     -9.093787
PE30  17659.295468 -20387.691753  12197.998259   3033.014205
PE31 -16839.060571  20596.952150 -12969.571850   -480.066033
PE33 -15295.949160   8047.962051 -24026.480486   -467.446763
PE36  14518.197240  14298.772635  21479.766880   -192.360872
PG01  13399.625689 -16631.509692  15307.670577    718.794243
PG02 -13641.324401  -8075.376528 -20651.139174   -594.754655
PG03  22051.040315 -13068.374766  -6812.585844   -134.027702
PG04  14170.619384  -7267.703031 -21258.483507   -191.292095
PG05 -24792.700505   2854.682975  -9510.638497    -38.805473
PG06  -7150.436610 -20055.756619 -15778.447334      6.528901
PG07   6816.609649 -25159.309087  -3075.835446    118.990423
PG08  19921.621542    410.355325  17704.394216    -17.142512
PG09   3847.705597 -15980.608878 -20920.131908   -338.175483
PG10   4469.913450  14441.858241  21947.225702    -99.953394
PG12 -24160.113940  10031.242209  -4362.925147    -26.461889
PG13 -21094.106023 -10383.045848  12349.375916    118.731874
PG14  -2728.386587 -15125.585841  21649.342634     96.721408
PG15 -20076.813014   2079.785206  17076.062217   -156.861571
PG16  23844.607979   2222.391714 -12218.098388   -308.152658
PG17 -11046.763309 -21281.671845  11846.977786    424.769320
PG18  -4883.810517  26071.501696    338.309377    351.615964
PG19 -16969.686277 -20263.409945   2851.252543    -14.259685
PG20 -16973.222467  17546.685165  10024.791085    523.275508
PG21  15358.403848  -8575.263596  20485.663730    110.237566
PG22  24632.505964  -9136.820739   3330.833119   -640.181864
PG23  -7995.638664  17108.250189  18638.885495    114.008876
PG24 -14791.056226  11649.646708  18337.321118     -0.109208
PG25 -14528.893776  16494.941738 -14973.227146    116.663871
PG26  17422.207048   7516.395955 -18746.774066     70.798160
PG27  22605.634803  11188.452537   8731.385473   -110.921712
PG28  -5071.720980 -14370.231614  22304.214206    588.273991
PG29  -4141.416387  15553.566933 -21165.267245   -328.250112
PG30  -1991.412069 -24701.068586   9287.769166   -411.455332
PG31   9156.937509  17514.338521 -17601.388183   -111.007551
PG32  13928.945029  20495.650390   9896.614472     22.080015
PJ01 -29590.846201  21885.632769  25563.396033   -364.532116
PJ02 -35281.121677  22844.821020   1353.121925      5.268191
PJ03 -20689.244271  22182.570857 -24713.358246     -3.214877
PR01  24886.567695   5390.206114   1372.974272     77.744028
PR02  17752.469220  -4696.149833 -17687.183278    474.429311
PR03    207.285746 -11103.716488 -22913.137387     34.043308
PR04 -17263.738509 -10972.173303 -15204.128652     81.960447
PR05 -25002.845067  -4891.028924   1036.819930     69.814779
PR07    585.840178  11273.083806  22919.070019    -42.545285
PR08  17269.331612  11072.424261  15232.582727    -58.479132
PR09 -18089.084938  17543.115010   4205.386056    -12.550815
PR11   4480.682850  11059.017572 -22538.730461      1.048515
PR12  16285.355689  -4654.422456 -19060.569328    220.050433
PR13  18124.073745 -17287.094080  -4855.686028    -53.286861
PR14   9265.303220 -19891.176636  13002.139310     63.038325
PR15  -4773.041200 -10863.299626  22595.263797    104.426375
PR16 -16586.105144   5681.423024  18444.735062    -13.667668
PR17  -2322.610008 -23059.423053  10697.856135    415.363965
PR18 -10039.782504 -22585.744787  -6167.083268     72.859249
PR19 -12202.417415 -11248.693220 -19370.196532   -139.390018
PR20  -7468.904309   9840.054260 -22319.171815    -47.101317
PR21   2917.102651  23436.823623  -9614.858100   -201.030747
PR22  10278.210015  22256.892789   7221.040563   -107.295943
PR24   7462.318264 -10739.910249  21917.218090     38.474519
EOF
